TIANMU-1 07             
1 57399U 23101A   26065.57454230  .00008352  00000+0  29795-3 0  9991
2 57399  97.2728 118.5929 0004609 142.4105 217.7458 15.29118809145964
STARLINK-32374          
1 62145U 24224G   26068.26300344  .00035289  00000+0  12854-2 0  9994
2 62145  43.0000 160.6086 0002018 256.0897 103.9730 15.27589886 72418
